[{"OBJECT_NAME":"NETSAT-1","OBJECT_ID":"2020-068W","EPOCH":"2026-03-09T22:42:38.711232","MEAN_MOTION":15.32042482,"ECCENTRICITY":0.00057337,"INCLINATION":97.8751,"RA_OF_ASC_NODE":63.2583,"ARG_OF_PERICENTER":18.5877,"MEAN_ANOMALY":341.5572,"EPHEMERIS_TYPE":0,"CLASSIFICATION_TYPE":"U","NORAD_CAT_ID":46506,"ELEMENT_SET_NO":999,"REV_AT_EPOCH":30009,"BSTAR":0.00059222329,"MEAN_MOTION_DOT":0.00018269,"MEAN_MOTION_DDOT":0},{"OBJECT_NAME":"STARLINK-34044","OBJECT_ID":"2025-093L","EPOCH":"2026-03-09T02:12:37.617984","MEAN_MOTION":15.27604612,"ECCENTRICITY":0.00030997,"INCLINATION":42.9978,"RA_OF_ASC_NODE":81.0209,"ARG_OF_PERICENTER":158.4555,"MEAN_ANOMALY":201.6427,"EPHEMERIS_TYPE":0,"CLASSIFICATION_TYPE":"U","NORAD_CAT_ID":63846,"ELEMENT_SET_NO":999,"REV_AT_EPOCH":4766,"BSTAR":0.0012279946,"MEAN_MOTION_DOT":0.00033712,"MEAN_MOTION_DDOT":0}]
